{"spkid": "50694809", "covariance": {"elements": [{"sigma": 3.22593084771433e-08, "name": "e", "title": "eccentricity", "value": ".6354646946453765", "units": null, "label": "e"}, {"sigma": 3.57772675400817e-08, "name": "q", "units": "au", "title": "perihelion distance", "value": ".4113636130374874", "label": "q"}, {"label": "tp", "title": "time of perihelion passage", "value": "2458334.691192978774", "units": "TDB", "name": "tp", "sigma": 1.02246427387309e-05}, {"name": "om", "sigma": 9.74469668070454e-05, "units": "deg", "title": "longitude of the ascending node", "value": "170.0850263364323", "label": "node"}, {"name": "w", "sigma": 0.000107960581309804, "title": "argument of perihelion", "value": "356.5356241288741", "units": "deg", "label": "peri"}, {"label": "i", "name": "i", "sigma": 2.78983569128395e-06, "title": "inclination", "value": "3.334298609141683", "units": "deg"}], "data": [["1.040662983423489E-15", "-1.154076942192871E-15", "-2.112462409942394E-14", "-5.898670645650137E-13", "6.306698681330189E-13", "-4.283961486232997E-14"], ["-1.154076942192871E-15", "1.280012872634585E-15", "2.139349601895777E-14", "6.762523645123036E-13", "-7.241139684885685E-13", "4.792829022749836E-14"], ["-2.112462409942394E-14", "2.139349601895777E-14", "1.045433191346828E-10", "-7.835948065245826E-10", "9.037419927905124E-10", "-6.830049355712201E-12"], ["-5.898670645650137E-13", "6.762523645123036E-13", "-7.835948065245826E-10", "9.495911339893402E-9", "-1.050234133819973E-8", "1.484989246754507E-10"], ["6.306698681330189E-13", "-7.241139684885685E-13", "9.037419927905124E-10", "-1.050234133819973E-8", "1.165548711675076E-8", "-1.605510500486026E-10"], ["-4.283961486232997E-14", "4.792829022749836E-14", "-6.830049355712201E-12", "1.484989246754507E-10", "-1.605510500486026E-10", "7.7831831843618E-12"]], "labels": ["e", "q", "tp", "node", "peri", "i"], "epoch": "2458264.5"}, "elements": [{"label": "e", "units": null, "value": ".635522310388593", "title": "eccentricity", "sigma": "3.2259E-8", "name": "e"}, {"units": "au", "title": "semi-major axis", "value": "1.128380506428487", "name": "a", "sigma": "1.9424E-9", "label": "a"}, {"units": "au", "value": ".4112695199856044", "title": "perihelion distance", "sigma": "3.5753E-8", "name": "q", "label": "q"}, {"value": "3.337854233257707", "title": "inclination; angle with respect to x-y ecliptic plane", "units": "deg", "name": "i", "sigma": "2.7838E-6", "label": "i"}, {"value": "169.9004044687854", "title": "longitude of the ascending node", "units": "deg", "name": "om", "sigma": "9.7473E-5", "label": "node"}, {"name": "w", "sigma": ".000108", "value": "356.7383673895029", "title": "argument of perihelion", "units": "deg", "label": "peri"}, {"sigma": "9.0975E-6", "name": "ma", "title": "mean anomaly", "value": "196.5845417598458", "units": "deg", "label": "M"}, {"name": "tp", "sigma": "1.1336E-5", "title": "time of perihelion passage", "value": "2461399.234114659440", "units": "TDB", "label": "tp"}, {"label": "period", "sigma": "1.1305E-6", "name": "per", "title": "sidereal orbital period", "value": "437.8060805744421", "units": "d"}, {"name": "n", "sigma": "2.1233E-9", "units": "deg/d", "value": ".8222818639879251", "title": "mean motion", "label": "n"}, {"units": "au", "value": "1.84549149287137", "title": "aphelion distance", "sigma": "3.1769E-9", "name": "ad", "label": "Q"}], "epoch": "2461200.5"}